NORAD_CAT_ID,OBJECT_NAME,OBJECT_TYPE,EPOCH,MEAN_MOTION,ECCENTRICITY,INCLINATION,RA_OF_ASC_NODE,ARG_OF_PERICENTER,MEAN_ANOMALY,BSTAR,MEAN_MOTION_DOT,MEAN_MOTION_DDOT,TLE_LINE0,TLE_LINE1,TLE_LINE2,SEMIMAJOR_AXIS,PERIOD,APOGEE,PERIGEE,DECAYED
53175.0,STARLINK-4292,PAYLOAD,2022-10-28 14:00:01,15.08855621,0.0002304,53.2189,287.2977,33.6948,244.4249,-0.0014608,-0.00023472,0.0,0 STARLINK-4292,1 53175U 22083AV  22301.58335648 -.00023472  00000-0 -14608-2 0  9997,2 53175  53.2189 287.2977 0002304  33.6948 244.4249 15.08855621  1309,6917.833000000001,95.437,541.2919999999998,538.104,0.0
53175.0,STARLINK-4292,PAYLOAD,2022-10-28 22:00:01,15.08840318,0.0002108,53.2191,285.8003,37.5056,252.2201,-4.9075e-05,-1.069e-05,0.0,0 STARLINK-4292,1 53175U 22083AV  22301.91668981 -.00001069  00000-0 -49075-4 0  9999,2 53175  53.2191 285.8003 0002108  37.5056 252.2201 15.08840318  1303,6917.879,95.438,541.203,538.286,0.0
53175.0,STARLINK-4292,PAYLOAD,2022-10-29 12:00:00,15.08853809,0.0002352,53.2179,283.1838,32.374,187.5713,-0.0044309,-0.0007015,0.0,0 STARLINK-4292,1 53175U 22083AV  22302.50001157 -.00070150  00000-0 -44309-2 0  9991,2 53175  53.2179 283.1838 0002352  32.3740 187.5713 15.08853809  1307,6917.8380000000025,95.437,541.33,538.076,0.0
53175.0,STARLINK-4292,PAYLOAD,2022-10-29 22:00:01,15.08833872,0.0002016,53.2187,281.3117,37.147,287.3814,0.0031351,0.00049953,0.0,0 STARLINK-4292,1 53175U 22083AV  22302.91668981  .00049953  00000-0  31351-2 0  9998,2 53175  53.2187 281.3117 0002016  37.1470 287.3814 15.08833872  1305,6917.899,95.438,541.159,538.369,0.0
53175.0,STARLINK-4292,PAYLOAD,2022-10-30 00:00:00,15.08862115,0.0002032,53.2187,280.9381,36.8477,20.5105,0.00014428,2.01e-05,0.0,0 STARLINK-4292,1 53175U 22083AV  22303.00001157  .00002010  00000-0  14428-3 0  9995,2 53175  53.2187 280.9381 0002032  36.8477  20.5105 15.08862115 16661,6917.813,95.436,541.0830000000002,538.2719999999998,0.0
53175.0,STARLINK-4292,PAYLOAD,2022-10-30 14:00:01,15.0885083,0.000213,53.2182,278.3202,31.4759,316.1735,-0.0017113,-0.00027429,0.0,0 STARLINK-4292,1 53175U 22083AV  22303.58334491 -.00027429  00000-0 -17113-2 0  9994,2 53175  53.2182 278.3202 0002130  31.4759 316.1735 15.08850830  1301,6917.847,95.437,541.186,538.239,0.0
53175.0,STARLINK-4292,PAYLOAD,2022-10-30 22:00:01,15.08834274,0.000206,53.2183,276.823,38.323,320.9901,0.00020481,2.972e-05,0.0,0 STARLINK-4292,1 53175U 22083AV  22303.91668981  .00002972  00000-0  20481-3 0  9992,2 53175  53.2183 276.8230 0002060  38.3230 320.9901 15.08834274  1300,6917.898,95.438,541.188,538.3380000000002,0.0
53175.0,STARLINK-4292,PAYLOAD,2022-10-31 14:00:01,15.088478699999998,0.0002218,53.218,273.8314,35.2617,347.1645,-0.0026881,-0.00042826,0.0,0 STARLINK-4292,1 53175U 22083AV  22304.58334491 -.00042826  00000-0 -26881-2 0  9995,2 53175  53.2180 273.8314 0002218  35.2617 347.1645 15.08847870  1309,6917.856,95.437,541.256,538.187,0.0
53175.0,STARLINK-4292,PAYLOAD,2022-10-31 22:00:01,15.08833635,0.0002154999999999,53.2181,272.3343,40.6147,353.4608,-0.00043915,-7.269999999999999e-05,0.0,0 STARLINK-4292,1 53175U 22083AV  22304.91668981 -.00007270  00000-0 -43915-3 0  9998,2 53175  53.2181 272.3343 0002155  40.6147 353.4608 15.08833635  1307,6917.9,95.438,541.256,538.274,0.0
53175.0,STARLINK-4292,PAYLOAD,2022-11-01 14:00:01,15.08855676,0.0002325,53.2181,269.3425,38.8573,18.316,-0.0015605,-0.00025049,0.0,0 STARLINK-4292,1 53175U 22083AV  22305.58334491 -.00025049  00000-0 -15605-2 0  9996,2 53175  53.2181 269.3425 0002325  38.8573  18.3160 15.08855676  1304,6917.831999999999,95.437,541.306,538.089,0.0
53175.0,STARLINK-4292,PAYLOAD,2022-11-01 22:00:00,15.08844342,0.0002195999999999,53.2182,267.8455,41.5849,27.193,-0.00013533,-2.442e-05,0.0,0 STARLINK-4292,1 53175U 22083AV  22305.91667824 -.00002442  00000-0 -13533-3 0  9993,2 53175  53.2182 267.8455 0002196  41.5849  27.1930 15.08844342 17100,6917.8669999999975,95.437,541.251,538.2130000000002,0.0
53175.0,STARLINK-4292,PAYLOAD,2022-11-02 14:00:01,15.08816111,0.0002185,53.2183,264.853,35.7474,56.2082,-0.00081092,-0.00013163,0.0,0 STARLINK-4292,1 53175U 22083AV  22306.58334491 -.00013163  00000-0 -81092-3 0  9995,2 53175  53.2183 264.8530 0002185  35.7474  56.2082 15.08816111 17204,6917.953,95.439,541.33,538.307,0.0
53175.0,STARLINK-4292,PAYLOAD,2022-11-02 18:00:02,15.087860199999998,0.0002093,53.2181,264.1037,37.236,240.5712,0.0039867,0.0006364,0.0,0 STARLINK-4292,1 53175U 22083AV  22306.75002315  .00063640  00000-0  39867-2 0  9996,2 53175  53.2181 264.1037 0002093  37.2360 240.5712 15.08786020  1303,6918.045,95.441,541.3580000000002,538.462,0.0
53175.0,STARLINK-4292,PAYLOAD,2022-11-03 03:54:09,15.08833876,0.0002095,53.2184,262.2521,44.2159,315.9,0.00017773,2.541e-05,0.0,0 STARLINK-4292,1 53175U 22083AV  22307.16261218  .00002541  00000-0  17773-3 0  9997,2 53175  53.2184 262.2521 0002095  44.2159 315.9000 15.08833876 17293,6917.899,95.438,541.2130000000002,538.315,0.0
53175.0,STARLINK-4292,PAYLOAD,2022-11-03 08:40:19,15.08843392,0.0002143,53.2186,261.3609,38.9944,321.1202,0.00084648,0.00013211,0.0,0 STARLINK-4292,1 53175U 22083AV  22307.36133256  .00013211  00000-0  84648-3 0  9990,2 53175  53.2186 261.3609 0002143  38.9944 321.1202 15.08843392 16687,6917.87,95.437,541.2180000000002,538.253,0.0
53175.0,STARLINK-4292,PAYLOAD,2022-11-04 02:09:32,15.08880359,0.0002064,53.2187,258.0897,38.5027,321.6112,0.0013857,0.00021859,0.0,0 STARLINK-4292,1 53175U 22083AV  22308.08996065  .00021859  00000-0  13857-2 0  9995,2 53175  53.2187 258.0897 0002064  38.5027 321.6112 15.08880359 17433,6917.757,95.435,541.05,538.194,0.0
53175.0,STARLINK-4292,PAYLOAD,2022-11-04 06:55:41,15.08865918,0.0002209,53.2191,257.1993,35.3699,324.744,0.00057438,8.871e-05,0.0,0 STARLINK-4292,1 53175U 22083AV  22308.28867951  .00008871  00000-0  57438-3 0  9991,2 53175  53.2191 257.1993 0002209  35.3699 324.7440 15.08865918 17461,6917.801,95.436,541.194,538.138,0.0
53175.0,STARLINK-4292,PAYLOAD,2022-11-04 13:17:14,15.08857059,0.0002136,53.2183,256.0085,34.7206,325.3925,0.0001648,2.337e-05,0.0,0 STARLINK-4292,1 53175U 22083AV  22308.55363779  .00002337  00000-0  16480-3 0  9993,2 53175  53.2183 256.0085 0002136  34.7206 325.3925 15.08857059 16863,6917.828,95.436,541.1709999999998,538.216,0.0
53175.0,STARLINK-4292,PAYLOAD,2022-11-05 02:00:19,15.08843159,0.0002211,53.219,253.6309,36.7307,323.3836,-3.1685e-05,-7.93e-06,0.0,0 STARLINK-4292,1 53175U 22083AV  22309.08356044 -.00000793  00000-0 -31685-4 0  9990,2 53175  53.2190 253.6309 0002211  36.7307 323.3836 15.08843159 17586,6917.871,95.437,541.265,538.206,0.0
53175.0,STARLINK-4292,PAYLOAD,2022-11-05 06:46:29,15.08835959,0.0002258,53.2193,252.7391,38.6168,321.4985,1.6095e-05,-3.2e-07,0.0,0 STARLINK-4292,1 53175U 22083AV  22309.28228493 -.00000032  00000-0  16095-4 0  9991,2 53175  53.2193 252.7391 0002258  38.6168 321.4985 15.08835959 16972,6917.893,95.438,541.32,538.196,0.0
53175.0,STARLINK-4292,PAYLOAD,2022-11-06 03:26:31,15.08829352,0.0001965,53.219,248.8726,39.2186,320.8948,-9.0137e-05,-1.722e-05,0.0,0 STARLINK-4292,1 53175U 22083AV  22310.14342460 -.00001722  00000-0 -90137-4 0  9996,2 53175  53.2190 248.8726 0001965  39.2186 320.8948 15.08829352 17746,6917.913000000001,95.438,541.137,538.419,0.0
53175.0,STARLINK-4292,PAYLOAD,2022-11-06 08:12:40,15.08838554,0.0002088,53.2198,247.9811,40.6449,319.4699,-1.0742e-05,-4.59e-06,0.0,0 STARLINK-4292,1 53175U 22083AV  22310.34213730 -.00000459  00000-0 -10742-4 0  9995,2 53175  53.2198 247.9811 0002088  40.6449 319.4699 15.08838554 17778,6917.885,95.438,541.194,538.305,0.0
53175.0,STARLINK-4292,PAYLOAD,2022-11-06 12:58:50,15.08830832,0.0002224,53.2201,247.0878,38.4515,321.6635,-5.6655e-05,-1.19e-05,0.0,0 STARLINK-4292,1 53175U 22083AV  22310.54086505 -.00001190  00000-0 -56655-4 0  9991,2 53175  53.2201 247.0878 0002224  38.4515 321.6635 15.08830832 17808,6917.908,95.438,541.312,538.235,0.0
53175.0,STARLINK-4292,PAYLOAD,2022-11-07 04:52:43,15.088176999999998,0.0002188,53.2194,244.1174,35.9924,324.1215,-0.00010198,-1.91e-05,0.0,0 STARLINK-4292,1 53175U 22083AV  22311.20328125 -.00001910  00000-0 -10198-3 0  9993,2 53175  53.2194 244.1174 0002188  35.9924 324.1215 15.08817700 17903,6917.949000000001,95.439,541.327,538.3,0.0
53175.0,STARLINK-4292,PAYLOAD,2022-11-07 19:11:10,15.08824301,0.0001593,53.22,241.4369,36.1555,323.9545,0.00030865,4.626e-05,0.0,0 STARLINK-4292,1 53175U 22083AV  22311.79943023  .00004626  00000-0  30865-3 0  9995,2 53175  53.2200 241.4369 0001593  36.1555 323.9545 15.08824301 17996,6917.928000000001,95.439,540.895,538.691,0.0
53175.0,STARLINK-4292,PAYLOAD,2022-11-08 01:32:42,15.08849747,0.0002111,53.2205,240.2504,40.9819,319.1332,0.00028295,4.219e-05,0.0,0 STARLINK-4292,1 53175U 22083AV  22312.06437789  .00004219  00000-0  28295-3 0  9995,2 53175  53.2205 240.2504 0002111  40.9819 319.1332 15.08849747 18030,6917.851,95.437,541.1759999999998,538.255,0.0
53175.0,STARLINK-4292,PAYLOAD,2022-11-08 04:43:28,15.08848055,0.0002139,53.2207,239.6558,43.6139,316.5022,0.00031279,4.694e-05,0.0,0 STARLINK-4292,1 53175U 22083AV  22312.19685664  .00004694  00000-0  31279-3 0  9999,2 53175  53.2207 239.6558 0002139  43.6139 316.5022 15.08848055 17417,6917.856,95.437,541.2,538.241,0.0
53175.0,STARLINK-4292,PAYLOAD,2022-11-09 04:34:13,15.08869038,0.0002147,53.2201,235.1951,44.7661,315.3504,0.00032434,4.882e-05,0.0,0 STARLINK-4292,1 53175U 22083AV  22313.19043223  .00004882  00000-0  32434-3 0  9992,2 53175  53.2201 235.1951 0002147  44.7661 315.3504 15.08869038 18204,6917.792,95.436,541.1419999999998,538.1709999999998,0.0
53175.0,STARLINK-4292,PAYLOAD,2022-11-10 01:14:18,15.08818785,0.0002173,53.2197,231.3298,44.4645,315.6521,-0.00039138,-6.508e-05,0.0,0 STARLINK-4292,1 53175U 22083AV  22314.05160393 -.00006508  00000-0 -39138-3 0  9993,2 53175  53.2197 231.3298 0002173  44.4645 315.6521 15.08818785 18337,6917.945,95.439,541.314,538.307,0.0
